ARIANE 5 R/B            
1 28499U 04049H   25312.42234028  .00001324  00000+0  15290-3 0  9996
2 28499  98.2514 111.4799 0085231  24.8732 335.6553 14.84904748127795
CZ-2D R/B               
1 28738U 05024B   25312.48614155  .00029645  00000+0  51272-3 0  9991
2 28738  97.3667 319.0890 0008171 100.7093 259.5079 15.50875109120949
ALOS (DAICHI)           
1 28931U 06002A   25312.44337785  .00002669  00000+0  46028-3 0  9990
2 28931  98.1041 264.1864 0001272  50.3718 309.7599 14.69312918 55674
H-2A R/B                
1 28932U 06002B   25312.35344840  .00011195  00000+0  60486-3 0  9999
2 28932  98.2307  84.3262 0054612 294.0570  65.4950 15.13604366 76068
RESURS-DK 1             
1 29228U 06021A   25312.09862580  .00004005  00000+0  23955-3 0  9998
2 29228  69.9328 191.3415 0007356 287.4523  72.5838 15.11874316 69148
CZ-4B R/B               
1 29507U 06046C   25312.37197229  .00007183  00000+0  37906-3 0  9998
2 29507  97.5777 352.6053 0033481 330.1957  29.7367 15.15360333 41669
CZ-2C R/B               
1 31114U 07010B   25312.33766909  .00000232  00000+0  12597-3 0  9997
2 31114  98.3958  66.7235 0057915 287.3623  72.1226 14.20188115962492
COSMO-SKYMED 1          
1 31598U 07023A   25312.53282608  .00005547  00000+0  50760-3 0  9996
2 31598  97.8853 137.7150 0001456  92.0594 268.0793 14.95381856996781
COSMOS 2428             
1 31792U 07029A   25312.47215924 -.00000218  00000+0 -91347-4 0  9997
2 31792  70.9362  97.8216 0001985  88.1641 271.9707 14.12890007946975
SL-16 R/B               
1 31793U 07029B   25312.45310029  .00000272  00000+0  16567-3 0  9996
2 31793  70.9753  67.2263 0002177 257.8143 166.6238 14.14805354948221
KORONAS-FOTON           
1 33504U 09003A   25312.33087954  .00017771  00000+0  44241-3 0  9999
2 33504  82.4337  41.7229 0010823 229.3403 130.6902 15.40066846927049
CZ-2C R/B               
1 37731U 11030B   25312.48007573  .00002707  00000+0  35012-3 0  9992
2 37731  97.8362 267.3601 0053906  26.3788  88.4883 14.80711723772155
