CCSDS_OMM_VERS = 2.0
CREATION_DATE  = 
ORIGINATOR     = 

OBJECT_NAME    = ARIANE 5 R/B
OBJECT_ID      = 2004-049H
CENTER_NAME    = EARTH
REF_FRAME      = TEME
TIME_SYSTEM    = UTC
MEAN_ELEMENT_THEORY = SGP/SGP4

EPOCH          = 2025-11-08T10:08:10.200192
MEAN_MOTION    = 14.84904748
ECCENTRICITY   = .0085231
INCLINATION    = 98.2514
RA_OF_ASC_NODE = 111.4799
ARG_OF_PERICENTER = 24.8732
MEAN_ANOMALY   = 335.6553

EPHEMERIS_TYPE = 0
CLASSIFICATION_TYPE = U
NORAD_CAT_ID   = 28499
ELEMENT_SET_NO = 999
REV_AT_EPOCH   = 12779
BSTAR          = .1529E-3
MEAN_MOTION_DOT = .1324E-4
MEAN_MOTION_DDOT = 0

CCSDS_OMM_VERS = 2.0
CREATION_DATE  = 
ORIGINATOR     = 

OBJECT_NAME    = CZ-2D R/B
OBJECT_ID      = 2005-024B
CENTER_NAME    = EARTH
REF_FRAME      = TEME
TIME_SYSTEM    = UTC
MEAN_ELEMENT_THEORY = SGP/SGP4

EPOCH          = 2025-11-08T11:40:02.629920
MEAN_MOTION    = 15.50875109
ECCENTRICITY   = .0008171
INCLINATION    = 97.3667
RA_OF_ASC_NODE = 319.0890
ARG_OF_PERICENTER = 100.7093
MEAN_ANOMALY   = 259.5079

EPHEMERIS_TYPE = 0
CLASSIFICATION_TYPE = U
NORAD_CAT_ID   = 28738
ELEMENT_SET_NO = 999
REV_AT_EPOCH   = 12094
BSTAR          = .51272E-3
MEAN_MOTION_DOT = .29645E-3
MEAN_MOTION_DDOT = 0

CCSDS_OMM_VERS = 2.0
CREATION_DATE  = 
ORIGINATOR     = 

OBJECT_NAME    = ALOS (DAICHI)
OBJECT_ID      = 2006-002A
CENTER_NAME    = EARTH
REF_FRAME      = TEME
TIME_SYSTEM    = UTC
MEAN_ELEMENT_THEORY = SGP/SGP4

EPOCH          = 2025-11-08T10:38:27.846240
MEAN_MOTION    = 14.69312918
ECCENTRICITY   = .0001272
INCLINATION    = 98.1041
RA_OF_ASC_NODE = 264.1864
ARG_OF_PERICENTER = 50.3718
MEAN_ANOMALY   = 309.7599

EPHEMERIS_TYPE = 0
CLASSIFICATION_TYPE = U
NORAD_CAT_ID   = 28931
ELEMENT_SET_NO = 999
REV_AT_EPOCH   = 5567
BSTAR          = .46028E-3
MEAN_MOTION_DOT = .2669E-4
MEAN_MOTION_DDOT = 0

CCSDS_OMM_VERS = 2.0
CREATION_DATE  = 
ORIGINATOR     = 

OBJECT_NAME    = H-2A R/B
OBJECT_ID      = 2006-002B
CENTER_NAME    = EARTH
REF_FRAME      = TEME
TIME_SYSTEM    = UTC
MEAN_ELEMENT_THEORY = SGP/SGP4

EPOCH          = 2025-11-08T08:28:57.941760
MEAN_MOTION    = 15.13604366
ECCENTRICITY   = .0054612
INCLINATION    = 98.2307
RA_OF_ASC_NODE = 84.3262
ARG_OF_PERICENTER = 294.0570
MEAN_ANOMALY   = 65.4950

EPHEMERIS_TYPE = 0
CLASSIFICATION_TYPE = U
NORAD_CAT_ID   = 28932
ELEMENT_SET_NO = 999
REV_AT_EPOCH   = 7606
BSTAR          = .60486E-3
MEAN_MOTION_DOT = .11195E-3
MEAN_MOTION_DDOT = 0

CCSDS_OMM_VERS = 2.0
CREATION_DATE  = 
ORIGINATOR     = 

OBJECT_NAME    = RESURS-DK 1
OBJECT_ID      = 2006-021A
CENTER_NAME    = EARTH
REF_FRAME      = TEME
TIME_SYSTEM    = UTC
MEAN_ELEMENT_THEORY = SGP/SGP4

EPOCH          = 2025-11-08T02:22:01.269120
MEAN_MOTION    = 15.11874316
ECCENTRICITY   = .00073568
INCLINATION    = 69.9328
RA_OF_ASC_NODE = 191.3415
ARG_OF_PERICENTER = 287.4523
MEAN_ANOMALY   = 72.5838

EPHEMERIS_TYPE = 0
CLASSIFICATION_TYPE = U
NORAD_CAT_ID   = 29228
ELEMENT_SET_NO = 999
REV_AT_EPOCH   = 6914
BSTAR          = .23954582E-3
MEAN_MOTION_DOT = .4005E-4
MEAN_MOTION_DDOT = 0

CCSDS_OMM_VERS = 2.0
CREATION_DATE  = 
ORIGINATOR     = 

OBJECT_NAME    = CZ-4B R/B
OBJECT_ID      = 2006-046C
CENTER_NAME    = EARTH
REF_FRAME      = TEME
TIME_SYSTEM    = UTC
MEAN_ELEMENT_THEORY = SGP/SGP4

EPOCH          = 2025-11-08T08:55:38.405856
MEAN_MOTION    = 15.15360333
ECCENTRICITY   = .0033481
INCLINATION    = 97.5777
RA_OF_ASC_NODE = 352.6053
ARG_OF_PERICENTER = 330.1957
MEAN_ANOMALY   = 29.7367

EPHEMERIS_TYPE = 0
CLASSIFICATION_TYPE = U
NORAD_CAT_ID   = 29507
ELEMENT_SET_NO = 999
REV_AT_EPOCH   = 4166
BSTAR          = .37906E-3
MEAN_MOTION_DOT = .7183E-4
MEAN_MOTION_DDOT = 0

CCSDS_OMM_VERS = 2.0
CREATION_DATE  = 
ORIGINATOR     = 

OBJECT_NAME    = CZ-2C R/B
OBJECT_ID      = 2007-010B
CENTER_NAME    = EARTH
REF_FRAME      = TEME
TIME_SYSTEM    = UTC
MEAN_ELEMENT_THEORY = SGP/SGP4

EPOCH          = 2025-11-08T08:06:14.609376
MEAN_MOTION    = 14.20188115
ECCENTRICITY   = .0057915
INCLINATION    = 98.3958
RA_OF_ASC_NODE = 66.7235
ARG_OF_PERICENTER = 287.3623
MEAN_ANOMALY   = 72.1226

EPHEMERIS_TYPE = 0
CLASSIFICATION_TYPE = U
NORAD_CAT_ID   = 31114
ELEMENT_SET_NO = 999
REV_AT_EPOCH   = 96249
BSTAR          = .12597E-3
MEAN_MOTION_DOT = .232E-5
MEAN_MOTION_DDOT = 0

CCSDS_OMM_VERS = 2.0
CREATION_DATE  = 
ORIGINATOR     = 

OBJECT_NAME    = COSMO-SKYMED 1
OBJECT_ID      = 2007-023A
CENTER_NAME    = EARTH
REF_FRAME      = TEME
TIME_SYSTEM    = UTC
MEAN_ELEMENT_THEORY = SGP/SGP4

EPOCH          = 2025-11-08T12:47:16.173312
MEAN_MOTION    = 14.95381856
ECCENTRICITY   = .0001456
INCLINATION    = 97.8853
RA_OF_ASC_NODE = 137.7150
ARG_OF_PERICENTER = 92.0594
MEAN_ANOMALY   = 268.0793

EPHEMERIS_TYPE = 0
CLASSIFICATION_TYPE = U
NORAD_CAT_ID   = 31598
ELEMENT_SET_NO = 999
REV_AT_EPOCH   = 99678
BSTAR          = .5076E-3
MEAN_MOTION_DOT = .5547E-4
MEAN_MOTION_DDOT = 0

CCSDS_OMM_VERS = 2.0
CREATION_DATE  = 
ORIGINATOR     = 

OBJECT_NAME    = COSMOS 2428
OBJECT_ID      = 2007-029A
CENTER_NAME    = EARTH
REF_FRAME      = TEME
TIME_SYSTEM    = UTC
MEAN_ELEMENT_THEORY = SGP/SGP4

EPOCH          = 2025-11-08T11:19:54.558336
MEAN_MOTION    = 14.12890007
ECCENTRICITY   = .0001985
INCLINATION    = 70.9362
RA_OF_ASC_NODE = 97.8216
ARG_OF_PERICENTER = 88.1641
MEAN_ANOMALY   = 271.9707

EPHEMERIS_TYPE = 0
CLASSIFICATION_TYPE = U
NORAD_CAT_ID   = 31792
ELEMENT_SET_NO = 999
REV_AT_EPOCH   = 94697
BSTAR          = -.91347E-4
MEAN_MOTION_DOT = -.218E-5
MEAN_MOTION_DDOT = 0

CCSDS_OMM_VERS = 2.0
CREATION_DATE  = 
ORIGINATOR     = 

OBJECT_NAME    = SL-16 R/B
OBJECT_ID      = 2007-029B
CENTER_NAME    = EARTH
REF_FRAME      = TEME
TIME_SYSTEM    = UTC
MEAN_ELEMENT_THEORY = SGP/SGP4

EPOCH          = 2025-11-08T10:52:27.865056
MEAN_MOTION    = 14.14805354
ECCENTRICITY   = .0002177
INCLINATION    = 70.9753
RA_OF_ASC_NODE = 67.2263
ARG_OF_PERICENTER = 257.8143
MEAN_ANOMALY   = 166.6238

EPHEMERIS_TYPE = 0
CLASSIFICATION_TYPE = U
NORAD_CAT_ID   = 31793
ELEMENT_SET_NO = 999
REV_AT_EPOCH   = 94822
BSTAR          = .16567E-3
MEAN_MOTION_DOT = .272E-5
MEAN_MOTION_DDOT = 0

CCSDS_OMM_VERS = 2.0
CREATION_DATE  = 
ORIGINATOR     = 

OBJECT_NAME    = KORONAS-FOTON
OBJECT_ID      = 2009-003A
CENTER_NAME    = EARTH
REF_FRAME      = TEME
TIME_SYSTEM    = UTC
MEAN_ELEMENT_THEORY = SGP/SGP4

EPOCH          = 2025-11-08T07:56:27.992256
MEAN_MOTION    = 15.40066846
ECCENTRICITY   = .0010823
INCLINATION    = 82.4337
RA_OF_ASC_NODE = 41.7229
ARG_OF_PERICENTER = 229.3403
MEAN_ANOMALY   = 130.6902

EPHEMERIS_TYPE = 0
CLASSIFICATION_TYPE = U
NORAD_CAT_ID   = 33504
ELEMENT_SET_NO = 999
REV_AT_EPOCH   = 92704
BSTAR          = .44241E-3
MEAN_MOTION_DOT = .17771E-3
MEAN_MOTION_DDOT = 0

CCSDS_OMM_VERS = 2.0
CREATION_DATE  = 
ORIGINATOR     = 

OBJECT_NAME    = CZ-2C R/B
OBJECT_ID      = 2011-030B
CENTER_NAME    = EARTH
REF_FRAME      = TEME
TIME_SYSTEM    = UTC
MEAN_ELEMENT_THEORY = SGP/SGP4

EPOCH          = 2025-11-08T11:31:18.543072
MEAN_MOTION    = 14.80711723
ECCENTRICITY   = .0053906
INCLINATION    = 97.8362
RA_OF_ASC_NODE = 267.3601
ARG_OF_PERICENTER = 26.3788
MEAN_ANOMALY   = 88.4883

EPHEMERIS_TYPE = 0
CLASSIFICATION_TYPE = U
NORAD_CAT_ID   = 37731
ELEMENT_SET_NO = 999
REV_AT_EPOCH   = 77215
BSTAR          = .35012E-3
MEAN_MOTION_DOT = .2707E-4
MEAN_MOTION_DDOT = 0

